! Orbits computed with differential corrections
format  = 'OEF1.1'       ! file format
rectype = 'ML'           ! record type (1L/ML)
refsys  = ECLM J2000     ! default reference system
END_OF_HEADER
1996 RO13
! Equinoctial elements: a, e*sin(LP), e*cos(LP), tan(i/2)*sin(LN), tan(i/2)*cos(LN), mean long.
 EQU   3.21771000275401E+00  0.134937092336212  0.128972223776605 -0.002463342750594 -0.000751148181268  10.6003525056080
 MJD     50345.36383972 TDT
 MAG  14.663  0.150
! RMS    1.69286E-03   2.61347E-03   7.59477E-03   1.14802E-05   1.66126E-05   2.61424E-01
! EIG   3.30100E-07   4.51928E-07   1.08166E-05   1.61022E-04   1.85007E-03   9.20578E-03
! WEA  -0.14710  -0.27724  -0.81792  -0.00123  -0.00133  -0.48218
 COV   2.865772290241754E-06  4.016057030469044E-06  9.201870170295493E-06
 COV   1.369341621914303E-08  1.361869713821170E-08  4.046167097230069E-04
 COV   6.830205933908725E-06  1.865891002380383E-05  2.800340494143610E-08
 COV   2.964371560655596E-08  6.831297430743308E-04  5.768051615685134E-05
 COV   8.695438304457012E-08  9.535286298513001E-08  1.854981641930681E-03
 COV   1.317946099513560E-10  1.364742602341466E-10  2.783322869861575E-06
 COV   2.759788753066599E-10  2.940863197466026E-06  6.834262103138095E-02
 NOR   6.710987614497890E+07 -1.678705205953331E+10  2.810529552579560E+08
 NOR   2.075328217006752E+09  1.029043017648803E+08  1.596829856692362E+08
 NOR   7.067118897009291E+12 -1.170122222047843E+11 -3.230180775235545E+09
 NOR   1.448851882040447E+10 -6.736564707621910E+10  1.951436529884004E+09
 NOR  -7.693781831568620E+09 -7.535425943159733E+08  1.115329801890088E+09
 NOR   4.876134992969996E+12  3.125740665813206E+11  1.679257415376751E+07
 NOR   2.864965396541195E+10 -1.389413572108442E+08  6.421514521072594E+08
